2022-023G               
1 51952U 22023G   22090.54744921  .00006376  00000+0  26078-3 0  9997
2 51952  63.4393 105.2800 0017882 305.7914 193.4607 15.25174621  4012
2022-023H               
1 51953U 22023H   22090.54412258  .00002288  00000+0  16962-3 0  9992
2 51953  63.6391 109.5743 0115058 247.3306 111.5637 15.00974209  3955
NOOR-2                  
1 51954U 22024A   22090.09154462  .00006894  00000+0  32188-3 0  9999
2 51954  58.2887  52.9245 0013227 286.2004 200.6187 15.20835478  3479
QASED R/B               
1 51955U 22024B   22089.60120218  .00004330  00000+0  20484-3 0  9996
2 51955  58.2916  54.8357 0010290 297.0063  62.9947 15.21257909  3392
STARLINK-3700           
1 51956U 22025A   22090.25001157 -.00025545  00000+0 -17805-3 0  9997
2 51956  53.2180  32.4530 0001118  95.4105 165.7105 15.73212614  4684
STARLINK-3694           
1 51957U 22025B   22090.25001157 -.00034797  00000+0 -24422-3 0  9990
2 51957  53.2197  32.4455 0001101 111.1566 153.0808 15.73230830  4701
STARLINK-3692           
1 51958U 22025C   22090.25001157 -.00011373  00000+0 -76740-4 0  9997
2 51958  53.2178  32.4519 0001152 113.1521 148.5699 15.73196264  4687
STARLINK-3704           
1 51959U 22025D   22090.25001157 -.00015993  00000+0 -10979-3 0  9991
2 51959  53.2198  32.4469 0001285 105.6609 157.9740 15.73191175  4681
STARLINK-3691           
1 51960U 22025E   22090.25001157 -.00027726  00000+0 -19371-3 0  9995
2 51960  53.2181  32.4453 0001201 108.9373 155.9676 15.73208978  4686
STARLINK-3689           
1 51961U 22025F   22090.25001157 -.00014837  00000+0 -10135-3 0  9994
2 51961  53.2176  32.4496 0001275 105.2773 157.0814 15.73229845  4709
STARLINK-3697           
1 51962U 22025G   22090.25001157 -.00043764  00000+0 -30878-3 0  9992
2 51962  53.2196  32.4432 0001264 116.4572 149.7499 15.73218543  4701
STARLINK-3675           
1 51963U 22025H   22090.25001157  .00012149  00000+0  90866-4 0  9998
2 51963  53.2177  32.4483 0001067 113.3813 149.6338 15.73196150  4689
STARLINK-3690           
1 51964U 22025J   22090.25001157 -.00038235  00000+0 -26887-3 0  9996
2 51964  53.2180  32.4388 0001072  92.0085 176.0875 15.73233363  4686
STARLINK-3696           
1 51965U 22025K   22090.25001157  .00007417  00000+0  57172-4 0  9995
2 51965  53.2177  32.4436 0001119 118.8174 146.7413 15.73216741  4688
STARLINK-3699           
1 51966U 22025L   22090.25001157 -.00030507  00000+0 -21363-3 0  9996
2 51966  53.2182  32.4363 0001266  98.3325 171.0550 15.73211535  4686
STARLINK-3695           
1 51967U 22025M   22090.25001157 -.00010727  00000+0 -72099-4 0  9992
2 51967  53.2180  32.4412 0001376 113.4087 153.4146 15.73202286  4707
STARLINK-3681           
1 51968U 22025N   22090.25001157 -.00018638  00000+0 -12861-3 0  9992
2 51968  53.2184  32.4337 0001064  94.4601 176.2322 15.73212672  4699
STARLINK-3680           
1 51969U 22025P   22090.25001157  .00015212  00000+0  11260-3 0  9998
2 51969  53.2181  32.4399 0001044  91.0802 176.3864 15.73200276  4700
STARLINK-3677           
1 51970U 22025Q   22090.25001157 -.00028076  00000+0 -19620-3 0  9992
2 51970  53.2184  32.4317 0001226  85.7467 186.2191 15.73211379  4680
STARLINK-3669           
1 51971U 22025R   22090.25001157 -.00058637  00000+0 -41614-3 0  9997
2 51971  53.2180  32.4376 0001171 105.0235 163.7967 15.73208664  4707
STARLINK-3671           
1 51972U 22025S   22090.25001157  .00040271  00000+0  29017-3 0  9994
2 51972  53.2186  32.4289 0001123  94.8909 178.3447 15.73184435  4699
STARLINK-3679           
1 51973U 22025T   22090.25001157 -.00030623  00000+0 -21443-3 0  9992
2 51973  53.2182  32.4321 0001284  86.3111 184.9854 15.73215041  4684
STARLINK-3672           
1 51974U 22025U   22089.91667824 -.00455806  00000+0 -32939-2 0  9998
2 51974  53.2177  33.3758 0001230 114.1846  55.4179 15.74086261  3603
STARLINK-3674           
1 51975U 22025V   22089.91667824 -.00015671  00000+0 -10736-3 0  9993
2 51975  53.2184  34.0734 0001274 102.4030  83.1443 15.73218164  3595
STARLINK-3663           
1 51976U 22025W   22089.91667824 -.00081767  00000+0 -58234-3 0  9998
2 51976  53.2180  34.0759 0001364  92.2686  92.6503 15.73260042  3596
STARLINK-3660           
1 51977U 22025X   22089.91667824 -.00455711  00000+0 -32935-2 0  9992
2 51977  53.2177  33.3767 0001137  90.5255  78.4440 15.74084520  3605
STARLINK-3666           
1 51978U 22025Y   22090.25001157 -.00022735  00000+0 -15796-3 0  9996
2 51978  53.2193  32.4216 0001059  89.0940 187.9549 15.73207859  4686
STARLINK-3656           
1 51979U 22025Z   22090.25001157 -.00035177  00000+0 -24696-3 0  9990
2 51979  53.2190  32.4299 0001199  90.2747 182.3463 15.73229121  4702
STARLINK-3649           
1 51980U 22025AA  22090.50001157 -.00070162  00000+0 -49894-3 0  9990
2 51980  53.2191  31.1804 0001059  98.2059 156.7920 15.73234530  4727
STARLINK-3635           
1 51981U 22025AB  22090.16667824 -.00033636  00000+0 -23590-3 0  9992
2 51981  53.2188  32.8372 0001233  96.0472  66.8149 15.73229600  4671
STARLINK-3650           
1 51982U 22025AC  22090.16667824 -.00005464  00000+0 -34549-4 0  9998
2 51982  53.2192  32.8298 0000982  87.6696  79.0765 15.73194754  4679
STARLINK-3655           
1 51983U 22025AD  22090.50001157  .00027962  00000+0  20305-3 0  9997
2 51983  53.2184  31.1846 0001168  91.8404 161.2809 15.73192426  4759
STARLINK-3664           
1 51984U 22025AE  22090.16667824 -.00031052  00000+0 -21747-3 0  9997
2 51984  53.2193  32.8259 0000940  87.9380  80.6752 15.73219988  4677
STARLINK-3651           
1 51985U 22025AF  22090.50001157 -.00063621  00000+0 -45239-3 0  9996
2 51985  53.2190  31.1807 0001140 101.2491 153.1647 15.73196699  4720
STARLINK-3645           
1 51986U 22025AG  22090.16667824 -.00044746  00000+0 -31584-3 0  9993
2 51986  53.2194  32.8236 0001115 105.7103  64.2037 15.73219331  4667
STARLINK-3644           
1 51987U 22025AH  22090.50001157 -.00056399  00000+0 -39993-3 0  9992
2 51987  53.2190  31.1776 0001175 115.0703 141.2360 15.73211521  4726
STARLINK-3640           
1 51988U 22025AJ  22090.16667824 -.00068113  00000+0 -48414-3 0  9999
2 51988  53.2194  32.8224 0001042 110.2789  60.2907 15.73233633  4681
STARLINK-3642           
1 51989U 22025AK  22090.16667824 -.00077971  00000+0 -55567-3 0  9999
2 51989  53.2190  32.8268 0001027  84.5528  83.4825 15.73226811  4678
STARLINK-3657           
1 51990U 22025AL  22090.50001157 -.00096141  00000+0 -68648-3 0  9994
2 51990  53.2177  31.1696 0001124 100.8930 159.8569 15.73266838  4732
STARLINK-3652           
1 51991U 22025AM  22090.50001157  .00030450  00000+0  22070-3 0  9993
2 51991  53.2191  31.1735 0001121  94.6500 163.6014 15.73188058  4727
STARLINK-3643           
1 51992U 22025AN  22090.16667824 -.00005844  00000+0 -37229-4 0  9999
2 51992  53.2183  32.8160 0001292 101.7152  72.0213 15.73214979  4682
STARLINK-3648           
1 51993U 22025AP  22090.50001157 -.00074108  00000+0 -52788-3 0  9994
2 51993  53.2190  31.1695 0001099  94.6333 165.5095 15.73217413  4741
STARLINK-3647           
1 51994U 22025AQ  22090.25001157 -.00038175  00000+0 -26872-3 0  9996
2 51994  53.2189  32.4032 0001150  96.2734 190.3703 15.73208732  4702
STARLINK-3636           
1 51995U 22025AR  22090.16667824 -.00041253  00000+0 -29071-3 0  9991
2 51995  53.2180  32.8185 0001231  95.0734  77.3845 15.73219568  4669
STARLINK-3538           
1 51996U 22025AS  22090.16667824 -.00021127  00000+0 -14644-3 0  9990
2 51996  53.2188  32.8135 0001096  88.4613  86.5595 15.73209243  4678
STARLINK-3589           
1 51997U 22025AT  22090.16667824 -.00026403  00000+0 -18410-3 0  9998
2 51997  53.2191  32.8168 0001160  99.2465  73.8510 15.73225270  4669
STARLINK-3618           
1 51998U 22025AU  22090.16667824 -.00067033  00000+0 -47546-3 0  9995
2 51998  53.2180  32.8113 0001071  95.5423  80.7697 15.73276304  4669
STARLINK-3667           
1 51999U 22025AV  22090.16667824 -.00073143  00000+0 -52013-3 0  9990
2 51999  53.2193  32.8116 0001132  89.5890  86.0739 15.73251409  4661
STARLINK-3653           
1 52000U 22025AW  22090.16667824 -.00045094  00000+0 -31811-3 0  9991
2 52000  53.2182  32.8088 0001345 104.1245  73.4584 15.73235846  4682
STARLINK-3659           
1 52001U 22025AX  22090.16667824 -.00073978  00000+0 -52634-3 0  9990
2 52001  53.2192  32.8090 0001149  97.0483  79.9000 15.73243960  4683
STARLINK-3668           
1 52002U 22025AY  22090.16667824 -.00067402  00000+0 -47843-3 0  9992
2 52002  53.2178  32.8077 0001104 102.6345  75.5865 15.73261061  4665
STARLINK-3654           
1 52003U 22025AZ  22090.16667824 -.00072892  00000+0 -51865-3 0  9991
2 52003  53.2195  32.8054 0001026  85.9824  92.8690 15.73236463  4664
FALCON 9 DEB            
1 52004U 22025BA  22090.09880011  .00375046  67580-4  89900-3 0  9996
2 52004  53.2285  31.2641 0005047 290.2467  69.8021 15.96003507  3590
FALCON 9 DEB            
1 52005U 22025BB  22090.09001542  .00392277  74111-4  87829-3 0  9992
2 52005  53.2241  31.1976 0006094 261.9023  98.1316 15.97228074  3590
FALCON 9 DEB            
1 52006U 22025BC  22090.07365157  .00355695  63419-4  74709-3 0  9991
2 52006  53.2221  31.0763 0008905 288.4935  71.5128 15.98345214  3594
FALCON 9 DEB            
1 52007U 22025BD  22090.07125971  .00365853  66496-4  76967-3 0  9993
2 52007  53.2194  31.0569 0009757 273.7769  86.2146 15.98296376  3593
2022-026A               
1 52008U 22026A   22090.53596272  .00016277  00000+0  74871-3 0  9991
2 52008  97.4876  91.5687 0048123 215.8910 143.9089 15.19366256  2413
SPACEBEE-121            
1 52009U 22026B   22089.53616090  .00010906  00000+0  60107-3 0  9991
2 52009  97.5029  90.4721 0028340 182.7370 177.3711 15.13822686  2245
SPACEBEE-114            
1 52010U 22026C   22090.19776140  .00014045  00000+0  77399-3 0  9999
2 52010  97.5042  91.1237 0027650 182.9155 177.1920 15.13778344  2351
